start=new Date('2022-09-06T00:00:00.000Z').valueOf();
sats=[{"MEAN_ELEMENT_THEORY":"SGP4","RCS_SIZE":"LARGE","CLASSIFICATION_TYPE":"U","COUNTRY_CODE":"US","MEAN_MOTION_DDOT":"0.0000000000000","MEAN_MOTION_DOT":"0.00004780","MEAN_MOTION":"15.06408846","APOAPSIS":"548.149","ECCENTRICITY":"0.00013900","BSTAR":"0.00033947000000","TLE_LINE2":"2 48361  53.0563 352.5988 0001390  98.9514 261.1633 15.06408846 73931","INCLINATION":"53.0563","OBJECT_TYPE":"PAYLOAD","ARG_OF_PERICENTER":"98.9514","FILE":"3559723","PERIAPSIS":"546.224","EPOCH":"2022-09-05T14:42:39.210912","ELEMENT_SET_NO":"999","SITE":"AFETR","OBJECT_NAME":"STARLINK-2591","EPHEMERIS_TYPE":"0","OBJECT_ID":"2021-038J","REF_FRAME":"TEME","SEMIMAJOR_AXIS":"6925.321","DECAY_DATE":null,"RA_OF_ASC_NODE":"352.5988","TLE_LINE1":"1 48361U 21038J   22248.61295383  .00004780  00000-0  33947-3 0  9999","TIME_SYSTEM":"UTC","LAUNCH_DATE":"2021-05-04","GP_ID":"211833594","CENTER_NAME":"EARTH","REV_AT_EPOCH":"7393","PERIOD":"95.592","MEAN_ANOMALY":"261.1633","NORAD_CAT_ID":"48361"},{"ARG_OF_PERICENTER":"89.4374","ELEMENT_SET_NO":"999","EPOCH":"2022-09-05T17:05:59.128224","FILE":"3559723","PERIAPSIS":"546.310","SITE":"AFETR","COUNTRY_CODE":"US","RCS_SIZE":"LARGE","CLASSIFICATION_TYPE":"U","MEAN_ELEMENT_THEORY":"SGP4","MEAN_MOTION":"15.06401308","APOAPSIS":"548.109","ECCENTRICITY":"0.00012990","MEAN_MOTION_DOT":"0.00000141","MEAN_MOTION_DDOT":"0.0000000000000","TLE_LINE2":"2 48362  53.0546 352.2303 0001299  89.4374 270.6763 15.06401308 73955","BSTAR":"0.00002836100000","OBJECT_TYPE":"PAYLOAD","INCLINATION":"53.0546","REV_AT_EPOCH":"7395","MEAN_ANOMALY":"270.6763","PERIOD":"95.592","NORAD_CAT_ID":"48362","OBJECT_NAME":"STARLINK-2578","SEMIMAJOR_AXIS":"6925.345","OBJECT_ID":"2021-038K","REF_FRAME":"TEME","EPHEMERIS_TYPE":"0","TLE_LINE1":"1 48362U 21038K   22248.71248991  .00000141  00000-0  28361-4 0  9996","RA_OF_ASC_NODE":"352.2303","DECAY_DATE":null,"CENTER_NAME":"EARTH","GP_ID":"211832844","TIME_SYSTEM":"UTC","LAUNCH_DATE":"2021-05-04"},{"REV_AT_EPOCH":"7401","PERIOD":"95.592","MEAN_ANOMALY":"265.7644","NORAD_CAT_ID":"48363","OBJECT_NAME":"STARLINK-2626","OBJECT_ID":"2021-038L","REF_FRAME":"TEME","EPHEMERIS_TYPE":"0","SEMIMAJOR_AXIS":"6925.318","DECAY_DATE":null,"TLE_LINE1":"1 48363U 21038L   22248.65580596  .00002115  00000-0  16077-3 0  9993","RA_OF_ASC_NODE":"347.4130","LAUNCH_DATE":"2021-05-04","TIME_SYSTEM":"UTC","CENTER_NAME":"EARTH","GP_ID":"211832595","ARG_OF_PERICENTER":"94.3511","FILE":"3559723","PERIAPSIS":"546.178","ELEMENT_SET_NO":"999","EPOCH":"2022-09-05T15:44:21.634944","SITE":"AFETR","RCS_SIZE":"LARGE","CLASSIFICATION_TYPE":"U","MEAN_ELEMENT_THEORY":"SGP4","COUNTRY_CODE":"US","MEAN_MOTION_DOT":"0.00002115","MEAN_MOTION_DDOT":"0.0000000000000","MEAN_MOTION":"15.06409892","APOAPSIS":"548.188","ECCENTRICITY":"0.00014510","TLE_LINE2":"2 48363  53.0569 347.4130 0001451  94.3511 265.7644 15.06409892 74010","BSTAR":"0.00016077000000","OBJECT_TYPE":"PAYLOAD","INCLINATION":"53.0569"},{"PERIOD":"95.592","MEAN_ANOMALY":"278.8809","NORAD_CAT_ID":"48364","REV_AT_EPOCH":"7400","DECAY_DATE":null,"TLE_LINE1":"1 48364U 21038M   22248.60423227  .00000075  00000-0  23907-4 0  9990","RA_OF_ASC_NODE":"347.8405","LAUNCH_DATE":"2021-05-04","TIME_SYSTEM":"UTC","CENTER_NAME":"EARTH","GP_ID":"211833846","OBJECT_NAME":"STARLINK-2611","REF_FRAME":"TEME","OBJECT_ID":"2021-038M","EPHEMERIS_TYPE":"0","SEMIMAJOR_AXIS":"6925.348","PERIAPSIS":"546.290","FILE":"3559723","ELEMENT_SET_NO":"999","EPOCH":"2022-09-05T14:30:05.668128","SITE":"AFETR","ARG_OF_PERICENTER":"81.2331","BSTAR":"0.00002390700000","TLE_LINE2":"2 48364  53.0570 347.8405 0001332  81.2331 278.8809 15.06400254 74005","OBJECT_TYPE":"PAYLOAD","INCLINATION":"53.0570","CLASSIFICATION_TYPE":"U","RCS_SIZE":"LARGE","MEAN_ELEMENT_THEORY":"SGP4","COUNTRY_CODE":"US","MEAN_MOTION_DOT":"0.00000075","MEAN_MOTION_DDOT":"0.0000000000000","APOAPSIS":"548.135","MEAN_MOTION":"15.06400254","ECCENTRICITY":"0.00013320"},{"MEAN_ANOMALY":"266.8538","PERIOD":"95.592","NORAD_CAT_ID":"48365","REV_AT_EPOCH":"7400","RA_OF_ASC_NODE":"347.8198","TLE_LINE1":"1 48365U 21038N   22248.56366292 -.00000665  00000-0 -25726-4 0  9992","DECAY_DATE":null,"GP_ID":"211834094","CENTER_NAME":"EARTH","LAUNCH_DATE":"2021-05-04","TIME_SYSTEM":"UTC","OBJECT_NAME":"STARLINK-2608","SEMIMAJOR_AXIS":"6925.349","EPHEMERIS_TYPE":"0","REF_FRAME":"TEME","OBJECT_ID":"2021-038N","EPOCH":"2022-09-05T13:31:40.476288","ELEMENT_SET_NO":"999","PERIAPSIS":"546.233","FILE":"3559723","SITE":"AFETR","ARG_OF_PERICENTER":"93.2613","TLE_LINE2":"2 48365  53.0542 347.8198 0001416  93.2613 266.8538 15.06399832 74008","BSTAR":"-0.00002572600000","INCLINATION":"53.0542","OBJECT_TYPE":"PAYLOAD","COUNTRY_CODE":"US","MEAN_ELEMENT_THEORY":"SGP4","CLASSIFICATION_TYPE":"U","RCS_SIZE":"LARGE","APOAPSIS":"548.195","MEAN_MOTION":"15.06399832","ECCENTRICITY":"0.00014160","MEAN_MOTION_DDOT":"0.0000000000000","MEAN_MOTION_DOT":"-0.00000665"},{"REV_AT_EPOCH":"7406","NORAD_CAT_ID":"48366","PERIOD":"95.593","MEAN_ANOMALY":"257.8852","EPHEMERIS_TYPE":"0","REF_FRAME":"TEME","OBJECT_ID":"2021-038P","SEMIMAJOR_AXIS":"6925.366","OBJECT_NAME":"STARLINK-2631","LAUNCH_DATE":"2021-05-04","TIME_SYSTEM":"UTC","GP_ID":"211832345","CENTER_NAME":"EARTH","DECAY_DATE":null,"RA_OF_ASC_NODE":"342.8882","TLE_LINE1":"1 48366U 21038P   22248.55122840 -.00000883  00000-0 -40419-4 0  9999","ARG_OF_PERICENTER":"102.2279","SITE":"AFETR","PERIAPSIS":"546.349","FILE":"3559723","ELEMENT_SET_NO":"999","EPOCH":"2022-09-05T13:13:46.133760","MEAN_MOTION_DDOT":"0.0000000000000","MEAN_MOTION_DOT":"-0.00000883","APOAPSIS":"548.113","ECCENTRICITY":"0.00012730","MEAN_MOTION":"15.06394294","MEAN_ELEMENT_THEORY":"SGP4","RCS_SIZE":"LARGE","CLASSIFICATION_TYPE":"U","COUNTRY_CODE":"US","INCLINATION":"53.0551","OBJECT_TYPE":"PAYLOAD","TLE_LINE2":"2 48366  53.0551 342.8882 0001273 102.2279 257.8852 15.06394294 74066","BSTAR":"-0.00004041900000"},{"ARG_OF_PERICENTER":"98.8812","SITE":"AFETR","FILE":"3559723","PERIAPSIS":"546.171","ELEMENT_SET_NO":"999","EPOCH":"2022-09-05T14:43:59.345184","MEAN_MOTION_DOT":"-0.00000163","MEAN_MOTION_DDOT":"0.0000000000000","MEAN_MOTION":"15.06400278","APOAPSIS":"548.254","ECCENTRICITY":"0.00015040","RCS_SIZE":"LARGE","CLASSIFICATION_TYPE":"U","MEAN_ELEMENT_THEORY":"SGP4","COUNTRY_CODE":"US","OBJECT_TYPE":"PAYLOAD","INCLINATION":"53.0553","BSTAR":"0.00000794860000","TLE_LINE2":"2 48367  53.0553 342.6008 0001504  98.8812 261.2348 15.06400278 74077","REV_AT_EPOCH":"7407","NORAD_CAT_ID":"48367","PERIOD":"95.592","MEAN_ANOMALY":"261.2348","REF_FRAME":"TEME","OBJECT_ID":"2021-038Q","EPHEMERIS_TYPE":"0","SEMIMAJOR_AXIS":"6925.348","OBJECT_NAME":"STARLINK-2643","LAUNCH_DATE":"2021-05-04","TIME_SYSTEM":"UTC","CENTER_NAME":"EARTH","GP_ID":"211833095","DECAY_DATE":null,"TLE_LINE1":"1 48367U 21038Q   22248.61388131 -.00000163  00000-0  79486-5 0  9991","RA_OF_ASC_NODE":"342.6008"},{"NORAD_CAT_ID":"48368","MEAN_ANOMALY":"279.3058","PERIOD":"95.592","REV_AT_EPOCH":"7409","GP_ID":"211833347","CENTER_NAME":"EARTH","LAUNCH_DATE":"2021-05-04","TIME_SYSTEM":"UTC","RA_OF_ASC_NODE":"342.3835","TLE_LINE1":"1 48368U 21038R   22248.72449380  .00000656  00000-0  62944-4 0  9994","DECAY_DATE":null,"SEMIMAJOR_AXIS":"6925.332","EPHEMERIS_TYPE":"0","REF_FRAME":"TEME","OBJECT_ID":"2021-038R","OBJECT_NAME":"STARLINK-2623","SITE":"AFETR","EPOCH":"2022-09-05T17:23:16.264320","ELEMENT_SET_NO":"999","FILE":"3559723","PERIAPSIS":"546.250","ARG_OF_PERICENTER":"80.8086","INCLINATION":"53.0553","OBJECT_TYPE":"PAYLOAD","BSTAR":"0.00006294400000","TLE_LINE2":"2 48368  53.0553 342.3835 0001368  80.8086 279.3058 15.06405274 74096","APOAPSIS":"548.145","MEAN_MOTION":"15.06405274","ECCENTRICITY":"0.00013680","MEAN_MOTION_DDOT":"0.0000000000000","MEAN_MOTION_DOT":"0.00000656","COUNTRY_CODE":"US","MEAN_ELEMENT_THEORY":"SGP4","CLASSIFICATION_TYPE":"U","RCS_SIZE":"LARGE"},{"MEAN_ANOMALY":"276.0977","PERIOD":"95.592","NORAD_CAT_ID":"48369","REV_AT_EPOCH":"7465","TLE_LINE1":"1 48369U 21038S   22248.54384257  .00000871  00000-0  77326-4 0  9995","RA_OF_ASC_NODE":"342.9175","DECAY_DATE":null,"CENTER_NAME":"EARTH","GP_ID":"211774142","LAUNCH_DATE":"2021-05-04","TIME_SYSTEM":"UTC","OBJECT_NAME":"STARLINK-2641","SEMIMAJOR_AXIS":"6925.318","OBJECT_ID":"2021-038S","REF_FRAME":"TEME","EPHEMERIS_TYPE":"0","ELEMENT_SET_NO":"999","EPOCH":"2022-09-05T13:03:07.998048","PERIAPSIS":"546.286","FILE":"3559210","SITE":"AFETR","ARG_OF_PERICENTER":"84.0160","BSTAR":"0.00007732600000","TLE_LINE2":"2 48369  53.0544 342.9175 0001296  84.0160 276.0977 15.06409827 74653","OBJECT_TYPE":"PAYLOAD","INCLINATION":"53.0544","COUNTRY_CODE":"US","CLASSIFICATION_TYPE":"U","RCS_SIZE":"LARGE","MEAN_ELEMENT_THEORY":"SGP4","APOAPSIS":"548.081","MEAN_MOTION":"15.06409827","ECCENTRICITY":"0.00012960","MEAN_MOTION_DOT":"0.00000871","MEAN_MOTION_DDOT":"0.0000000000000"},{"INCLINATION":"53.0558","OBJECT_TYPE":"PAYLOAD","BSTAR":"0.00002326700000","TLE_LINE2":"2 48370  53.0558 342.3329 0001406  88.8220 271.2930 15.06407898 74086","APOAPSIS":"548.163","MEAN_MOTION":"15.06407898","ECCENTRICITY":"0.00014060","MEAN_MOTION_DDOT":"0.0000000000000","MEAN_MOTION_DOT":"0.00000065","COUNTRY_CODE":"US","MEAN_ELEMENT_THEORY":"SGP4","CLASSIFICATION_TYPE":"U","RCS_SIZE":"LARGE","SITE":"AFETR","ELEMENT_SET_NO":"999","EPOCH":"2022-09-05T16:08:54.199392","FILE":"3559723","PERIAPSIS":"546.216","ARG_OF_PERICENTER":"88.8220","GP_ID":"211832845","CENTER_NAME":"EARTH","TIME_SYSTEM":"UTC","LAUNCH_DATE":"2021-05-04","RA_OF_ASC_NODE":"342.3329","TLE_LINE1":"1 48370U 21038T   22248.67284953  .00000065  00000-0  23267-4 0  9993","DECAY_DATE":null,"SEMIMAJOR_AXIS":"6925.324","EPHEMERIS_TYPE":"0","REF_FRAME":"TEME","OBJECT_ID":"2021-038T","OBJECT_NAME":"STARLINK-2621","NORAD_CAT_ID":"48370","MEAN_ANOMALY":"271.2930","PERIOD":"95.592","REV_AT_EPOCH":"7408"}];
